{
  "data": [
    {
      "name": "\u4e2d\u56fd",
      "en_name": "China",
      "native_name": "\u4e2d\u56fd",
      "capital": "\u5317\u4eac",
      "en_capital": "Beijing",
      "alpha_2": "CN",
      "alpha_3": "CHN",
      "phone_code": "86"
    },
    {
      "name": "\u7f8e\u56fd",
      "en_name": "United States",
      "native_name": "United States",
      "capital": "\u534e\u76db\u987f\u534e\u76db\u987f",
      "en_capital": "Washington D.C.",
      "alpha_2": "US",
      "alpha_3": "USA",
      "phone_code": "1"
    },
    {
      "name": "\u97e9\u56fd",
      "en_name": "South Korea",
      "native_name": "\ub300\ud55c\ubbfc\uad6d",
      "capital": "\u6c49\u57ce",
      "en_capital": "Seoul",
      "alpha_2": "KR",
      "alpha_3": "KOR",
      "phone_code": "82"
    },
    {
      "name": "\u65e5\u672c",
      "en_name": "Japan",
      "native_name": "\u65e5\u672c",
      "capital": "\u4e1c\u4eac",
      "en_capital": "Tokyo",
      "alpha_2": "JP",
      "alpha_3": "JPN",
      "phone_code": "81"
    },
    {
      "name": "\u963f\u5bcc\u6c57",
      "en_name": "Afghanistan",
      "native_name": "\u0627\u0641\u063a\u0627\u0646\u0633\u062a\u0627\u0646",
      "capital": "\u5580\u5e03\u5c14",
      "en_capital": "Kabul",
      "alpha_2": "AF",
      "alpha_3": "AFG",
      "phone_code": "93"
    },
    {
      "name": "\u5965\u5170\u7fa4\u5c9b",
      "en_name": "\u00c5land Islands",
      "native_name": "\u00c5land",
      "capital": "Mariehamn",
      "en_capital": "Mariehamn",
      "alpha_2": "AX",
      "alpha_3": "ALA",
      "phone_code": "358"
    },
    {
      "name": "\u963f\u5c14\u5df4\u5c3c\u4e9a",
      "en_name": "Albania",
      "native_name": "Shqip\u00ebria",
      "capital": "\u5730\u62c9\u90a3",
      "en_capital": "Tirana",
      "alpha_2": "AL",
      "alpha_3": "ALB",
      "phone_code": "355"
    },
    {
      "name": "\u963f\u5c14\u53ca\u5229\u4e9a",
      "en_name": "Algeria",
      "native_name": "\u0627\u0644\u062c\u0632\u0627\u0626\u0631",
      "capital": "\u963f\u5c14\u53ca\u5c14",
      "en_capital": "Algiers",
      "alpha_2": "DZ",
      "alpha_3": "DZA",
      "phone_code": "213"
    },
    {
      "name": "\u7f8e\u5c5e\u8428\u6469\u4e9a",
      "en_name": "American Samoa",
      "native_name": "American Samoa",
      "capital": "\u5e15\u679c\u5e15\u679c",
      "en_capital": "Pago Pago",
      "alpha_2": "AS",
      "alpha_3": "ASM",
      "phone_code": "1684"
    },
    {
      "name": "\u5b89\u9053\u5c14",
      "en_name": "Andorra",
      "native_name": "Andorra",
      "capital": "\u5b89\u9053\u5c14\u62c9\u5e15\u7279\u91cc\u514b*\u7ef4\u62c9",
      "en_capital": "Andorra la Vella",
      "alpha_2": "AD",
      "alpha_3": "AND",
      "phone_code": "376"
    },
    {
      "name": "\u5b89\u54e5\u62c9",
      "en_name": "Angola",
      "native_name": "Angola",
      "capital": "\u7f57\u5b89\u8fbe",
      "en_capital": "Luanda",
      "alpha_2": "AO",
      "alpha_3": "AGO",
      "phone_code": "244"
    },
    {
      "name": "\u5b89\u572d\u62c9",
      "en_name": "Anguilla",
      "native_name": "Anguilla",
      "capital": "\u5728\u5c71\u8c37",
      "en_capital": "The Valley",
      "alpha_2": "AI",
      "alpha_3": "AIA",
      "phone_code": "1264"
    },
    {
      "name": "\u5b89\u63d0\u74dc\u548c\u5df4\u5e03\u8fbe",
      "en_name": "Antigua and Barbuda",
      "native_name": "Antigua and Barbuda",
      "capital": "\u5723\u7ea6\u7ff0",
      "en_capital": "Saint John's",
      "alpha_2": "AG",
      "alpha_3": "ATG",
      "phone_code": "1268"
    },
    {
      "name": "\u963f\u6839\u5ef7",
      "en_name": "Argentina",
      "native_name": "Argentina",
      "capital": "\u5e03\u5b9c\u8bfa\u65af\u827e\u5229\u65af",
      "en_capital": "Buenos Aires",
      "alpha_2": "AR",
      "alpha_3": "ARG",
      "phone_code": "54"
    },
    {
      "name": "\u4e9a\u7f8e\u5c3c\u4e9a",
      "en_name": "Armenia",
      "native_name": "\u0540\u0561\u0575\u0561\u057d\u057f\u0561\u0576",
      "capital": "\u57c3\u91cc\u6e29",
      "en_capital": "Yerevan",
      "alpha_2": "AM",
      "alpha_3": "ARM",
      "phone_code": "374"
    },
    {
      "name": "\u963f\u9c81\u5df4",
      "en_name": "Aruba",
      "native_name": "Aruba",
      "capital": "\u5965\u62c9\u6d85\u65af\u5854\u5fb7",
      "en_capital": "Oranjestad",
      "alpha_2": "AW",
      "alpha_3": "ABW",
      "phone_code": "297"
    },
    {
      "name": "\u6fb3\u5927\u5229\u4e9a",
      "en_name": "Australia",
      "native_name": "Australia",
      "capital": "\u582a\u57f9\u62c9",
      "en_capital": "Canberra",
      "alpha_2": "AU",
      "alpha_3": "AUS",
      "phone_code": "61"
    },
    {
      "name": "\u5965\u5730\u5229",
      "en_name": "Austria",
      "native_name": "\u00d6sterreich",
      "capital": "\u7ef4\u4e5f\u7eb3",
      "en_capital": "Vienna",
      "alpha_2": "AT",
      "alpha_3": "AUT",
      "phone_code": "43"
    },
    {
      "name": "\u963f\u585e\u62dc\u7586",
      "en_name": "Azerbaijan",
      "native_name": "Az\u0259rbaycan",
      "capital": "\u5df4\u5e93",
      "en_capital": "Baku",
      "alpha_2": "AZ",
      "alpha_3": "AZE",
      "phone_code": "994"
    },
    {
      "name": "\u5df4\u54c8\u9a6c",
      "en_name": "The Bahamas",
      "native_name": "Bahamas",
      "capital": "\u62ff\u9a9a",
      "en_capital": "Nassau",
      "alpha_2": "BS",
      "alpha_3": "BHS",
      "phone_code": "1242"
    },
    {
      "name": "\u5df4\u6797",
      "en_name": "Bahrain",
      "native_name": "\u200f\u0627\u0644\u0628\u062d\u0631\u064a\u0646",
      "capital": "\u9ea6\u7eb3\u9ea6",
      "en_capital": "Manama",
      "alpha_2": "BH",
      "alpha_3": "BHR",
      "phone_code": "973"
    },
    {
      "name": "\u5b5f\u52a0\u62c9\u56fd",
      "en_name": "Bangladesh",
      "native_name": "Bangladesh",
      "capital": "\u8fbe\u5361",
      "en_capital": "Dhaka",
      "alpha_2": "BD",
      "alpha_3": "BGD",
      "phone_code": "880"
    },
    {
      "name": "\u5df4\u5df4\u591a\u65af",
      "en_name": "Barbados",
      "native_name": "Barbados",
      "capital": "\u5e03\u91cc\u5947\u6566",
      "en_capital": "Bridgetown",
      "alpha_2": "BB",
      "alpha_3": "BRB",
      "phone_code": "1246"
    },
    {
      "name": "\u767d\u4fc4\u7f57\u65af",
      "en_name": "Belarus",
      "native_name": "\u0411\u0435\u043b\u0430\u0440\u0443\u0301\u0441\u044c",
      "capital": "\u660e\u65af\u514b",
      "en_capital": "Minsk",
      "alpha_2": "BY",
      "alpha_3": "BLR",
      "phone_code": "375"
    },
    {
      "name": "\u6bd4\u5229\u65f6",
      "en_name": "Belgium",
      "native_name": "Belgi\u00eb",
      "capital": "\u5e03\u9c81\u585e\u5c14",
      "en_capital": "Brussels",
      "alpha_2": "BE",
      "alpha_3": "BEL",
      "phone_code": "32"
    },
    {
      "name": "\u4f2f\u5229\u5179",
      "en_name": "Belize",
      "native_name": "Belize",
      "capital": "\u8d1d\u5c14\u83ab\u6f58",
      "en_capital": "Belmopan",
      "alpha_2": "BZ",
      "alpha_3": "BLZ",
      "phone_code": "501"
    },
    {
      "name": "\u8d1d\u5b81",
      "en_name": "Benin",
      "native_name": "B\u00e9nin",
      "capital": "Porto-Novo",
      "en_capital": "Porto-Novo",
      "alpha_2": "BJ",
      "alpha_3": "BEN",
      "phone_code": "229"
    },
    {
      "name": "\u767e\u6155\u5927",
      "en_name": "Bermuda",
      "native_name": "Bermuda",
      "capital": "\u6c49\u5bc6\u5c14\u987f",
      "en_capital": "Hamilton",
      "alpha_2": "BM",
      "alpha_3": "BMU",
      "phone_code": "1441"
    },
    {
      "name": "\u4e0d\u4e39",
      "en_name": "Bhutan",
      "native_name": "\u02bcbrug-yul",
      "capital": "\u5ef7\u5e03\u7684",
      "en_capital": "Thimphu",
      "alpha_2": "BT",
      "alpha_3": "BTN",
      "phone_code": "975"
    },
    {
      "name": "\u73bb\u5229\u7ef4\u4e9a",
      "en_name": "Bolivia",
      "native_name": "Bolivia",
      "capital": "Sucre",
      "en_capital": "Sucre",
      "alpha_2": "BO",
      "alpha_3": "BOL",
      "phone_code": "591"
    },
    {
      "name": "\u535a\u5185\u5c14\u5c9b",
      "en_name": "Bonaire",
      "native_name": "Bonaire",
      "capital": "Kralendijk",
      "en_capital": "Kralendijk",
      "alpha_2": "BQ",
      "alpha_3": "BES",
      "phone_code": "5997"
    },
    {
      "name": "\u535a\u8328\u74e6\u7eb3",
      "en_name": "Botswana",
      "native_name": "Botswana",
      "capital": "\u54c8\u535a\u7f57\u5185",
      "en_capital": "Gaborone",
      "alpha_2": "BW",
      "alpha_3": "BWA",
      "phone_code": "267"
    },
    {
      "name": "\u5df4\u897f\u7684",
      "en_name": "Brazil",
      "native_name": "Brasil",
      "capital": "\u5df4\u897f\u5229\u4e9a",
      "en_capital": "Bras\u00edlia",
      "alpha_2": "BR",
      "alpha_3": "BRA",
      "phone_code": "55"
    },
    {
      "name": "\u82f1\u5c5e\u5370\u5ea6\u6d0b\u9886\u571f",
      "en_name": "British Indian Ocean Territory",
      "native_name": "British Indian Ocean Territory",
      "capital": "\u8fed\u6208*\u52a0\u897f\u4e9a",
      "en_capital": "Diego Garcia",
      "alpha_2": "IO",
      "alpha_3": "IOT",
      "phone_code": "246"
    },
    {
      "name": "\u82f1\u5c5e\u7ef4\u5c14\u4eac\u7fa4\u5c9b",
      "en_name": "British Virgin Islands",
      "native_name": "British Virgin Islands",
      "capital": "\u516c\u8def\u4e0a\u8def\u9547\uff08Road Town\uff09",
      "en_capital": "Road Town",
      "alpha_2": "VG",
      "alpha_3": "VGB",
      "phone_code": "1284"
    },
    {
      "name": "\u6587\u83b1",
      "en_name": "Brunei",
      "native_name": "Negara Brunei Darussalam",
      "capital": "\u65af\u91cc\u5df4\u52a0\u6e7e\u5e02",
      "en_capital": "Bandar Seri Begawan",
      "alpha_2": "BN",
      "alpha_3": "BRN",
      "phone_code": "673"
    },
    {
      "name": "\u4fdd\u52a0\u5229\u4e9a",
      "en_name": "Bulgaria",
      "native_name": "\u0411\u044a\u043b\u0433\u0430\u0440\u0438\u044f",
      "capital": "\u7d22\u83f2\u4e9a",
      "en_capital": "Sofia",
      "alpha_2": "BG",
      "alpha_3": "BGR",
      "phone_code": "359"
    },
    {
      "name": "\u5e03\u57fa\u7eb3\u6cd5\u7d22",
      "en_name": "Burkina Faso",
      "native_name": "Burkina Faso",
      "capital": "\u74e6\u52a0\u675c\u53e4",
      "en_capital": "Ouagadougou",
      "alpha_2": "BF",
      "alpha_3": "BFA",
      "phone_code": "226"
    },
    {
      "name": "\u5e03\u9686\u8fea",
      "en_name": "Burundi",
      "native_name": "Burundi",
      "capital": "\u5e03\u743c\u5e03\u62c9",
      "en_capital": "Bujumbura",
      "alpha_2": "BI",
      "alpha_3": "BDI",
      "phone_code": "257"
    },
    {
      "name": "\u67ec\u57d4\u5be8",
      "en_name": "Cambodia",
      "native_name": "K\u00e2mp\u016dch\u00e9a",
      "capital": "\u91d1\u8fb9",
      "en_capital": "Phnom Penh",
      "alpha_2": "KH",
      "alpha_3": "KHM",
      "phone_code": "855"
    },
    {
      "name": "\u5580\u9ea6\u9686",
      "en_name": "Cameroon",
      "native_name": "Cameroon",
      "capital": "\u96c5\u6e29\u5f97",
      "en_capital": "Yaound\u00e9",
      "alpha_2": "CM",
      "alpha_3": "CMR",
      "phone_code": "237"
    },
    {
      "name": "\u52a0\u62ff\u5927",
      "en_name": "Canada",
      "native_name": "Canada",
      "capital": "\u6e25\u592a\u534e",
      "en_capital": "Ottawa",
      "alpha_2": "CA",
      "alpha_3": "CAN",
      "phone_code": "1"
    },
    {
      "name": "\u4f5b\u5f97\u89d2",
      "en_name": "Cape Verde",
      "native_name": "Cabo Verde",
      "capital": "\u666e\u62c9\u4e9a",
      "en_capital": "Praia",
      "alpha_2": "CV",
      "alpha_3": "CPV",
      "phone_code": "238"
    },
    {
      "name": "\u5f00\u66fc\u7fa4\u5c9b",
      "en_name": "Cayman Islands",
      "native_name": "Cayman Islands",
      "capital": "\u4e54\u6cbb\u9547",
      "en_capital": "George Town",
      "alpha_2": "KY",
      "alpha_3": "CYM",
      "phone_code": "1345"
    },
    {
      "name": "\u4e2d\u975e\u5171\u548c\u56fd",
      "en_name": "Central African Republic",
      "native_name": "K\u00f6d\u00f6r\u00f6s\u00ease t\u00ee B\u00eaafr\u00eeka",
      "capital": "\u73ed\u5409\u7684",
      "en_capital": "Bangui",
      "alpha_2": "CF",
      "alpha_3": "CAF",
      "phone_code": "236"
    },
    {
      "name": "\u4e4d\u5f97",
      "en_name": "Chad",
      "native_name": "Tchad",
      "capital": "\u6069\u8d3e\u6885\u7eb3",
      "en_capital": "N'Djamena",
      "alpha_2": "TD",
      "alpha_3": "TCD",
      "phone_code": "235"
    },
    {
      "name": "\u667a\u5229",
      "en_name": "Chile",
      "native_name": "Chile",
      "capital": "\u5723\u5730\u4e9a\u54e5",
      "en_capital": "Santiago",
      "alpha_2": "CL",
      "alpha_3": "CHL",
      "phone_code": "56"
    },
    {
      "name": "\u5723\u8bde\u5c9b",
      "en_name": "Christmas Island",
      "native_name": "Christmas Island",
      "capital": "\u98de\u9c7c\u6e7e",
      "en_capital": "Flying Fish Cove",
      "alpha_2": "CX",
      "alpha_3": "CXR",
      "phone_code": "61"
    },
    {
      "name": "\u79d1\u79d1\u65af\uff08\u57fa\u7075\uff09\u7fa4\u5c9b",
      "en_name": "Cocos (Keeling) Islands",
      "native_name": "Cocos (Keeling) Islands",
      "capital": "\u897f\u5c9b",
      "en_capital": "West Island",
      "alpha_2": "CC",
      "alpha_3": "CCK",
      "phone_code": "61"
    },
    {
      "name": "\u54e5\u4f26\u6bd4\u4e9a",
      "en_name": "Colombia",
      "native_name": "Colombia",
      "capital": "\u6ce2\u54e5\u5927",
      "en_capital": "Bogot\u00e1",
      "alpha_2": "CO",
      "alpha_3": "COL",
      "phone_code": "57"
    },
    {
      "name": "\u79d1\u6469\u7f57",
      "en_name": "Comoros",
      "native_name": "Komori",
      "capital": "\u83ab\u7f57\u5c3c",
      "en_capital": "Moroni",
      "alpha_2": "KM",
      "alpha_3": "COM",
      "phone_code": "269"
    },
    {
      "name": "\u521a\u679c\u5171\u548c\u56fd",
      "en_name": "Republic of the Congo",
      "native_name": "R\u00e9publique du Congo",
      "capital": "\u5e03\u62c9\u67f4\u7ef4\u5c14",
      "en_capital": "Brazzaville",
      "alpha_2": "CG",
      "alpha_3": "COG",
      "phone_code": "242"
    },
    {
      "name": "\u521a\u679c\u6c11\u4e3b\u5171\u548c\u56fd",
      "en_name": "Democratic Republic of the Congo",
      "native_name": "R\u00e9publique d\u00e9mocratique du Congo",
      "capital": "\u91d1\u6c99\u8428",
      "en_capital": "Kinshasa",
      "alpha_2": "CD",
      "alpha_3": "COD",
      "phone_code": "243"
    },
    {
      "name": "\u5e93\u514b\u7fa4\u5c9b",
      "en_name": "Cook Islands",
      "native_name": "Cook Islands",
      "capital": "Avarua",
      "en_capital": "Avarua",
      "alpha_2": "CK",
      "alpha_3": "COK",
      "phone_code": "682"
    },
    {
      "name": "\u54e5\u65af\u8fbe\u9ece\u52a0",
      "en_name": "Costa Rica",
      "native_name": "Costa Rica",
      "capital": "\u5723\u4f55\u585e",
      "en_capital": "San Jos\u00e9",
      "alpha_2": "CR",
      "alpha_3": "CRI",
      "phone_code": "506"
    },
    {
      "name": "\u514b\u7f57\u5730\u4e9a",
      "en_name": "Croatia",
      "native_name": "Hrvatska",
      "capital": "\u8428\u683c\u52d2\u5e03",
      "en_capital": "Zagreb",
      "alpha_2": "HR",
      "alpha_3": "HRV",
      "phone_code": "385"
    },
    {
      "name": "\u53e4\u5df4",
      "en_name": "Cuba",
      "native_name": "Cuba",
      "capital": "\u54c8\u74e6\u90a3",
      "en_capital": "Havana",
      "alpha_2": "CU",
      "alpha_3": "CUB",
      "phone_code": "53"
    },
    {
      "name": "\u5e93\u62c9\u7d22\u5c9b",
      "en_name": "Cura\u00e7ao",
      "native_name": "Cura\u00e7ao",
      "capital": "Willemstad",
      "en_capital": "Willemstad",
      "alpha_2": "CW",
      "alpha_3": "CUW",
      "phone_code": "5999"
    },
    {
      "name": "\u585e\u6d66\u8def\u65af",
      "en_name": "Cyprus",
      "native_name": "\u039a\u03cd\u03c0\u03c1\u03bf\u03c2",
      "capital": "\u5c3c\u79d1\u897f\u4e9a",
      "en_capital": "Nicosia",
      "alpha_2": "CY",
      "alpha_3": "CYP",
      "phone_code": "357"
    },
    {
      "name": "\u6377\u514b\u5171\u548c\u56fd",
      "en_name": "Czech Republic",
      "native_name": "\u010cesk\u00e1 republika",
      "capital": "\u5e03\u62c9\u683c",
      "en_capital": "Prague",
      "alpha_2": "CZ",
      "alpha_3": "CZE",
      "phone_code": "420"
    },
    {
      "name": "\u4e39\u9ea6",
      "en_name": "Denmark",
      "native_name": "Danmark",
      "capital": "\u54e5\u672c\u54c8\u6839",
      "en_capital": "Copenhagen",
      "alpha_2": "DK",
      "alpha_3": "DNK",
      "phone_code": "45"
    },
    {
      "name": "\u5409\u5e03\u63d0",
      "en_name": "Djibouti",
      "native_name": "Djibouti",
      "capital": "\u5409\u5e03\u63d0",
      "en_capital": "Djibouti",
      "alpha_2": "DJ",
      "alpha_3": "DJI",
      "phone_code": "253"
    },
    {
      "name": "\u591a\u7c73\u5c3c\u514b",
      "en_name": "Dominica",
      "native_name": "Dominica",
      "capital": "Roseau",
      "en_capital": "Roseau",
      "alpha_2": "DM",
      "alpha_3": "DMA",
      "phone_code": "1767"
    },
    {
      "name": "\u591a\u7c73\u5c3c\u52a0\u5171\u548c\u56fd",
      "en_name": "Dominican Republic",
      "native_name": "Rep\u00fablica Dominicana",
      "capital": "Santo Domingo",
      "en_capital": "Santo Domingo",
      "alpha_2": "DO",
      "alpha_3": "DOM",
      "phone_code": "1809"
    },
    {
      "name": "\u5384\u74dc\u591a\u5c14",
      "en_name": "Ecuador",
      "native_name": "Ecuador",
      "capital": "\u57fa\u591a",
      "en_capital": "Quito",
      "alpha_2": "EC",
      "alpha_3": "ECU",
      "phone_code": "593"
    },
    {
      "name": "\u57c3\u53ca",
      "en_name": "Egypt",
      "native_name": "\u0645\u0635\u0631\u200e",
      "capital": "\u5f00\u7f57",
      "en_capital": "Cairo",
      "alpha_2": "EG",
      "alpha_3": "EGY",
      "phone_code": "20"
    },
    {
      "name": "\u8428\u5c14\u74e6\u591a",
      "en_name": "El Salvador",
      "native_name": "El Salvador",
      "capital": "\u5723\u8428\u5c14\u74e6\u591a",
      "en_capital": "San Salvador",
      "alpha_2": "SV",
      "alpha_3": "SLV",
      "phone_code": "503"
    },
    {
      "name": "\u8d64\u9053\u51e0\u5185\u4e9a",
      "en_name": "Equatorial Guinea",
      "native_name": "Guinea Ecuatorial",
      "capital": "\u9a6c\u62c9\u535a",
      "en_capital": "Malabo",
      "alpha_2": "GQ",
      "alpha_3": "GNQ",
      "phone_code": "240"
    },
    {
      "name": "\u5384\u7acb\u7279\u91cc\u4e9a",
      "en_name": "Eritrea",
      "native_name": "\u12a4\u122d\u1275\u122b",
      "capital": "\u963f\u65af\u9a6c\u62c9",
      "en_capital": "Asmara",
      "alpha_2": "ER",
      "alpha_3": "ERI",
      "phone_code": "291"
    },
    {
      "name": "\u7231\u6c99\u5c3c\u4e9a",
      "en_name": "Estonia",
      "native_name": "Eesti",
      "capital": "\u5854\u6797",
      "en_capital": "Tallinn",
      "alpha_2": "EE",
      "alpha_3": "EST",
      "phone_code": "372"
    },
    {
      "name": "\u57c3\u585e\u4fc4\u6bd4\u4e9a",
      "en_name": "Ethiopia",
      "native_name": "\u12a2\u1275\u12ee\u1335\u12eb",
      "capital": "\u4e9a\u7684\u65af\u4e9a\u8d1d\u5df4",
      "en_capital": "Addis Ababa",
      "alpha_2": "ET",
      "alpha_3": "ETH",
      "phone_code": "251"
    },
    {
      "name": "\u798f\u514b\u5170\u7fa4\u5c9b",
      "en_name": "Falkland Islands",
      "native_name": "Falkland Islands",
      "capital": "Stanley",
      "en_capital": "Stanley",
      "alpha_2": "FK",
      "alpha_3": "FLK",
      "phone_code": "500"
    },
    {
      "name": "\u6cd5\u7f57\u7fa4\u5c9b",
      "en_name": "Faroe Islands",
      "native_name": "F\u00f8royar",
      "capital": "\u6258\u5c14\u65af\u6e2f",
      "en_capital": "T\u00f3rshavn",
      "alpha_2": "FO",
      "alpha_3": "FRO",
      "phone_code": "298"
    },
    {
      "name": "\u6590\u6d4e",
      "en_name": "Fiji",
      "native_name": "Fiji",
      "capital": "\u82cf\u74e6",
      "en_capital": "Suva",
      "alpha_2": "FJ",
      "alpha_3": "FJI",
      "phone_code": "679"
    },
    {
      "name": "\u82ac\u5170",
      "en_name": "Finland",
      "native_name": "Suomi",
      "capital": "\u8d6b\u5c14\u8f9b\u57fa",
      "en_capital": "Helsinki",
      "alpha_2": "FI",
      "alpha_3": "FIN",
      "phone_code": "358"
    },
    {
      "name": "\u6cd5\u56fd",
      "en_name": "France",
      "native_name": "France",
      "capital": "\u5df4\u9ece",
      "en_capital": "Paris",
      "alpha_2": "FR",
      "alpha_3": "FRA",
      "phone_code": "33"
    },
    {
      "name": "\u6cd5\u5c5e\u572d\u4e9a\u90a3",
      "en_name": "French Guiana",
      "native_name": "Guyane fran\u00e7aise",
      "capital": "Cayenne",
      "en_capital": "Cayenne",
      "alpha_2": "GF",
      "alpha_3": "GUF",
      "phone_code": "594"
    },
    {
      "name": "\u6cd5\u5c5e\u6ce2\u5229\u5c3c\u897f\u4e9a",
      "en_name": "French Polynesia",
      "native_name": "Polyn\u00e9sie fran\u00e7aise",
      "capital": "Papeet\u0113",
      "en_capital": "Papeet\u0113",
      "alpha_2": "PF",
      "alpha_3": "PYF",
      "phone_code": "689"
    },
    {
      "name": "\u6cd5\u56fd\u5357\u65b9\u548c\u5357\u6781\u7684\u571f\u5730",
      "en_name": "French Southern and Antarctic Lands",
      "native_name": "Territoire des Terres australes et antarctiques fran\u00e7aises",
      "capital": "\u6e2faux-\u6cd5\u56fd\u4eba",
      "en_capital": "Port-aux-Fran\u00e7ais",
      "alpha_2": "TF",
      "alpha_3": "ATF",
      "phone_code": "262"
    },
    {
      "name": "\u52a0\u84ec",
      "en_name": "Gabon",
      "native_name": "Gabon",
      "capital": "\u5229\u4f2f\u7ef4\u5c14",
      "en_capital": "Libreville",
      "alpha_2": "GA",
      "alpha_3": "GAB",
      "phone_code": "241"
    },
    {
      "name": "\u5188\u6bd4\u4e9a",
      "en_name": "The Gambia",
      "native_name": "Gambia",
      "capital": "\u73ed\u73e0\u5c14",
      "en_capital": "Banjul",
      "alpha_2": "GM",
      "alpha_3": "GMB",
      "phone_code": "220"
    },
    {
      "name": "\u683c\u9c81\u5409\u4e9a",
      "en_name": "Georgia",
      "native_name": "\u10e1\u10d0\u10e5\u10d0\u10e0\u10d7\u10d5\u10d4\u10da\u10dd",
      "capital": "\u7b2c\u6bd4\u5229\u65af",
      "en_capital": "Tbilisi",
      "alpha_2": "GE",
      "alpha_3": "GEO",
      "phone_code": "995"
    },
    {
      "name": "\u5fb7\u56fd",
      "en_name": "Germany",
      "native_name": "Deutschland",
      "capital": "\u67cf\u6797",
      "en_capital": "Berlin",
      "alpha_2": "DE",
      "alpha_3": "DEU",
      "phone_code": "49"
    },
    {
      "name": "\u52a0\u7eb3",
      "en_name": "Ghana",
      "native_name": "Ghana",
      "capital": "\u963f\u514b\u62c9",
      "en_capital": "Accra",
      "alpha_2": "GH",
      "alpha_3": "GHA",
      "phone_code": "233"
    },
    {
      "name": "\u76f4\u5e03\u7f57\u9640",
      "en_name": "Gibraltar",
      "native_name": "Gibraltar",
      "capital": "\u76f4\u5e03\u7f57\u9640",
      "en_capital": "Gibraltar",
      "alpha_2": "GI",
      "alpha_3": "GIB",
      "phone_code": "350"
    },
    {
      "name": "\u5e0c\u814a",
      "en_name": "Greece",
      "native_name": "\u0395\u03bb\u03bb\u03ac\u03b4\u03b1",
      "capital": "\u96c5\u5178",
      "en_capital": "Athens",
      "alpha_2": "GR",
      "alpha_3": "GRC",
      "phone_code": "30"
    },
    {
      "name": "\u683c\u9675\u5170",
      "en_name": "Greenland",
      "native_name": "Kalaallit Nunaat",
      "capital": "\u52aa\u514b",
      "en_capital": "Nuuk",
      "alpha_2": "GL",
      "alpha_3": "GRL",
      "phone_code": "299"
    },
    {
      "name": "\u683c\u6797\u7eb3\u8fbe",
      "en_name": "Grenada",
      "native_name": "Grenada",
      "capital": "\u5723\u4e54\u6cbb",
      "en_capital": "St. George's",
      "alpha_2": "GD",
      "alpha_3": "GRD",
      "phone_code": "1473"
    },
    {
      "name": "\u74dc\u5fb7\u7f57\u666e\u5c9b",
      "en_name": "Guadeloupe",
      "native_name": "Guadeloupe",
      "capital": "\u5f88\u4f4e\u7684\u5bd2",
      "en_capital": "Basse-Terre",
      "alpha_2": "GP",
      "alpha_3": "GLP",
      "phone_code": "590"
    },
    {
      "name": "\u5173\u5c9b",
      "en_name": "Guam",
      "native_name": "Guam",
      "capital": "\u54c8\u52a0\u7279\u7eb3",
      "en_capital": "Hag\u00e5t\u00f1a",
      "alpha_2": "GU",
      "alpha_3": "GUM",
      "phone_code": "1671"
    },
    {
      "name": "\u5371\u5730\u9a6c\u62c9",
      "en_name": "Guatemala",
      "native_name": "Guatemala",
      "capital": "\u5371\u5730\u9a6c\u62c9\u57ce",
      "en_capital": "Guatemala City",
      "alpha_2": "GT",
      "alpha_3": "GTM",
      "phone_code": "502"
    },
    {
      "name": "\u683c\u6069\u897f\u5c9b",
      "en_name": "Guernsey",
      "native_name": "Guernsey",
      "capital": "\u5723\u5f7c\u5f97\u5821\u6e2f",
      "en_capital": "St. Peter Port",
      "alpha_2": "GG",
      "alpha_3": "GGY",
      "phone_code": "44"
    },
    {
      "name": "\u51e0\u5185\u4e9a",
      "en_name": "Guinea",
      "native_name": "Guin\u00e9e",
      "capital": "\u79d1\u7eb3\u514b\u91cc",
      "en_capital": "Conakry",
      "alpha_2": "GN",
      "alpha_3": "GIN",
      "phone_code": "224"
    },
    {
      "name": "\u51e0\u5185\u4e9a\u6bd4\u7ecd",
      "en_name": "Guinea-Bissau",
      "native_name": "Guin\u00e9-Bissau",
      "capital": "\u6bd4\u7ecd",
      "en_capital": "Bissau",
      "alpha_2": "GW",
      "alpha_3": "GNB",
      "phone_code": "245"
    },
    {
      "name": "\u572d\u4e9a\u90a3",
      "en_name": "Guyana",
      "native_name": "Guyana",
      "capital": "\u4e54\u6cbb\u57ce\u5927\u5b66",
      "en_capital": "Georgetown",
      "alpha_2": "GY",
      "alpha_3": "GUY",
      "phone_code": "592"
    },
    {
      "name": "\u6d77\u5730",
      "en_name": "Haiti",
      "native_name": "Ha\u00efti",
      "capital": "\u592a\u5b50\u6e2f",
      "en_capital": "Port-au-Prince",
      "alpha_2": "HT",
      "alpha_3": "HTI",
      "phone_code": "509"
    },
    {
      "name": "\u6d2a\u90fd\u62c9\u65af",
      "en_name": "Honduras",
      "native_name": "Honduras",
      "capital": "\u7279\u53e4\u897f\u52a0\u5c14\u5df4",
      "en_capital": "Tegucigalpa",
      "alpha_2": "HN",
      "alpha_3": "HND",
      "phone_code": "504"
    },
    {
      "name": "\u4e2d\u56fd\u9999\u6e2f",
      "en_name": "Hong Kong(China)",
      "native_name": "\u9999\u6e2f",
      "capital": "\u57ce\u5e02\u7684\u7ef4\u591a\u5229\u4e9a",
      "en_capital": "City of Victoria",
      "alpha_2": "HK",
      "alpha_3": "HKG",
      "phone_code": "852"
    },
    {
      "name": "\u5308\u7259\u5229",
      "en_name": "Hungary",
      "native_name": "Magyarorsz\u00e1g",
      "capital": "\u5e03\u8fbe\u4f69\u65af",
      "en_capital": "Budapest",
      "alpha_2": "HU",
      "alpha_3": "HUN",
      "phone_code": "36"
    },
    {
      "name": "\u51b0\u5c9b",
      "en_name": "Iceland",
      "native_name": "\u00cdsland",
      "capital": "\u96f7\u514b\u96c5\u672a\u514b",
      "en_capital": "Reykjavik",
      "alpha_2": "IS",
      "alpha_3": "ISL",
      "phone_code": "354"
    },
    {
      "name": "\u5370\u5ea6",
      "en_name": "India",
      "native_name": "\u092d\u093e\u0930\u0924",
      "capital": "\u65b0\u5fb7\u91cc",
      "en_capital": "New Delhi",
      "alpha_2": "IN",
      "alpha_3": "IND",
      "phone_code": "91"
    },
    {
      "name": "\u5370\u5ea6\u5c3c\u897f\u4e9a",
      "en_name": "Indonesia",
      "native_name": "Indonesia",
      "capital": "\u96c5\u52a0\u8fbe",
      "en_capital": "Jakarta",
      "alpha_2": "ID",
      "alpha_3": "IDN",
      "phone_code": "62"
    },
    {
      "name": "\u8c61\u7259\u6d77\u5cb8",
      "en_name": "Ivory Coast",
      "native_name": "C\u00f4te d'Ivoire",
      "capital": "\u4e9a\u7a46\u82cf\u514b\u7f57",
      "en_capital": "Yamoussoukro",
      "alpha_2": "CI",
      "alpha_3": "CIV",
      "phone_code": "225"
    },
    {
      "name": "\u4f0a\u6717",
      "en_name": "Iran",
      "native_name": "Ir\u0101n",
      "capital": "\u5fb7\u9ed1\u5170",
      "en_capital": "Tehran",
      "alpha_2": "IR",
      "alpha_3": "IRN",
      "phone_code": "98"
    },
    {
      "name": "\u4f0a\u62c9\u514b",
      "en_name": "Iraq",
      "native_name": "\u0627\u0644\u0639\u0631\u0627\u0642",
      "capital": "\u5df4\u683c\u8fbe",
      "en_capital": "Baghdad",
      "alpha_2": "IQ",
      "alpha_3": "IRQ",
      "phone_code": "964"
    },
    {
      "name": "\u7231\u5c14\u5170\u5171\u548c\u56fd",
      "en_name": "Republic of Ireland",
      "native_name": "\u00c9ire",
      "capital": "\u90fd\u67cf\u6797",
      "en_capital": "Dublin",
      "alpha_2": "IE",
      "alpha_3": "IRL",
      "phone_code": "353"
    },
    {
      "name": "\u9a6c\u6069\u5c9b",
      "en_name": "Isle of Man",
      "native_name": "Isle of Man",
      "capital": "\u9053\u683c\u62c9\u65af",
      "en_capital": "Douglas",
      "alpha_2": "IM",
      "alpha_3": "IMN",
      "phone_code": "44"
    },
    {
      "name": "\u4ee5\u8272\u5217",
      "en_name": "Israel",
      "native_name": "\u05d9\u05b4\u05e9\u05b0\u05c2\u05e8\u05b8\u05d0\u05b5\u05dc",
      "capital": "\u7279\u62c9\u7ef4\u592b",
      "en_capital": "Tel Aviv",
      "alpha_2": "IL",
      "alpha_3": "ISR",
      "phone_code": "972"
    },
    {
      "name": "\u610f\u5927\u5229",
      "en_name": "Italy",
      "native_name": "Italia",
      "capital": "\u7f57\u9a6c",
      "en_capital": "Rome",
      "alpha_2": "IT",
      "alpha_3": "ITA",
      "phone_code": "39"
    },
    {
      "name": "\u7259\u4e70\u52a0",
      "en_name": "Jamaica",
      "native_name": "Jamaica",
      "capital": "\u91d1\u65af\u6566",
      "en_capital": "Kingston",
      "alpha_2": "JM",
      "alpha_3": "JAM",
      "phone_code": "1876"
    },
    {
      "name": "\u7ea6\u65e6",
      "en_name": "Jordan",
      "native_name": "\u0627\u0644\u0623\u0631\u062f\u0646",
      "capital": "\u5b89\u66fc",
      "en_capital": "Amman",
      "alpha_2": "JO",
      "alpha_3": "JOR",
      "phone_code": "962"
    },
    {
      "name": "\u54c8\u8428\u514b\u65af\u5766",
      "en_name": "Kazakhstan",
      "native_name": "\u049a\u0430\u0437\u0430\u049b\u0441\u0442\u0430\u043d",
      "capital": "\u963f\u65af\u5854\u7eb3",
      "en_capital": "Astana",
      "alpha_2": "KZ",
      "alpha_3": "KAZ",
      "phone_code": "76"
    },
    {
      "name": "\u80af\u5c3c\u4e9a",
      "en_name": "Kenya",
      "native_name": "Kenya",
      "capital": "\u5185\u7f57\u6bd5",
      "en_capital": "Nairobi",
      "alpha_2": "KE",
      "alpha_3": "KEN",
      "phone_code": "254"
    },
    {
      "name": "\u57fa\u91cc\u5df4\u65af",
      "en_name": "Kiribati",
      "native_name": "Kiribati",
      "capital": "\u5357Tarawa",
      "en_capital": "South Tarawa",
      "alpha_2": "KI",
      "alpha_3": "KIR",
      "phone_code": "686"
    },
    {
      "name": "\u79d1\u5a01\u7279",
      "en_name": "Kuwait",
      "native_name": "\u0627\u0644\u0643\u0648\u064a\u062a",
      "capital": "\u79d1\u5a01\u7279\u57ce",
      "en_capital": "Kuwait City",
      "alpha_2": "KW",
      "alpha_3": "KWT",
      "phone_code": "965"
    },
    {
      "name": "\u5409\u5c14\u5409\u65af\u65af\u5766",
      "en_name": "Kyrgyzstan",
      "native_name": "\u041a\u044b\u0440\u0433\u044b\u0437\u0441\u0442\u0430\u043d",
      "capital": "\u6bd4\u4ec0\u51ef\u514b",
      "en_capital": "Bishkek",
      "alpha_2": "KG",
      "alpha_3": "KGZ",
      "phone_code": "996"
    },
    {
      "name": "\u8001\u631d",
      "en_name": "Laos",
      "native_name": "\u0eaa\u0e9b\u0e9b\u0ea5\u0eb2\u0ea7",
      "capital": "\u4e07\u8c61",
      "en_capital": "Vientiane",
      "alpha_2": "LA",
      "alpha_3": "LAO",
      "phone_code": "856"
    },
    {
      "name": "\u62c9\u8131\u7ef4\u4e9a",
      "en_name": "Latvia",
      "native_name": "Latvija",
      "capital": "Riga",
      "en_capital": "Riga",
      "alpha_2": "LV",
      "alpha_3": "LVA",
      "phone_code": "371"
    },
    {
      "name": "\u9ece\u5df4\u5ae9",
      "en_name": "Lebanon",
      "native_name": "\u0644\u0628\u0646\u0627\u0646",
      "capital": "\u8d1d\u9c81\u7279",
      "en_capital": "Beirut",
      "alpha_2": "LB",
      "alpha_3": "LBN",
      "phone_code": "961"
    },
    {
      "name": "\u83b1\u7d22\u6258",
      "en_name": "Lesotho",
      "native_name": "Lesotho",
      "capital": "\u9a6c\u585e\u5362",
      "en_capital": "Maseru",
      "alpha_2": "LS",
      "alpha_3": "LSO",
      "phone_code": "266"
    },
    {
      "name": "\u5229\u6bd4\u91cc\u4e9a",
      "en_name": "Liberia",
      "native_name": "Liberia",
      "capital": "\u8499\u7f57\u7ef4\u4e9a",
      "en_capital": "Monrovia",
      "alpha_2": "LR",
      "alpha_3": "LBR",
      "phone_code": "231"
    },
    {
      "name": "\u5229\u6bd4\u4e9a",
      "en_name": "Libya",
      "native_name": "\u200f\u0644\u064a\u0628\u064a\u0627",
      "capital": "\u7684\u9ece\u6ce2\u91cc",
      "en_capital": "Tripoli",
      "alpha_2": "LY",
      "alpha_3": "LBY",
      "phone_code": "218"
    },
    {
      "name": "\u5217\u652f\u6566\u58eb\u767b",
      "en_name": "Liechtenstein",
      "native_name": "Liechtenstein",
      "capital": "\u74e6\u675c\u5179",
      "en_capital": "Vaduz",
      "alpha_2": "LI",
      "alpha_3": "LIE",
      "phone_code": "423"
    },
    {
      "name": "\u7acb\u9676\u5b9b",
      "en_name": "Lithuania",
      "native_name": "Lietuva",
      "capital": "\u7ef4\u5c14\u7ebd\u65af",
      "en_capital": "Vilnius",
      "alpha_2": "LT",
      "alpha_3": "LTU",
      "phone_code": "370"
    },
    {
      "name": "\u5362\u68ee\u5821",
      "en_name": "Luxembourg",
      "native_name": "Luxembourg",
      "capital": "\u5362\u68ee\u5821",
      "en_capital": "Luxembourg",
      "alpha_2": "LU",
      "alpha_3": "LUX",
      "phone_code": "352"
    },
    {
      "name": "\u9a6c\u5176\u987f\u5171\u548c\u56fd",
      "en_name": "Republic of Macedonia",
      "native_name": "\u041c\u0430\u043a\u0435\u0434\u043e\u043d\u0438\u0458\u0430",
      "capital": "\u65af\u79d1\u666e\u91cc",
      "en_capital": "Skopje",
      "alpha_2": "MK",
      "alpha_3": "MKD",
      "phone_code": "389"
    },
    {
      "name": "\u9a6c\u8fbe\u52a0\u65af\u52a0",
      "en_name": "Madagascar",
      "native_name": "Madagasikara",
      "capital": "\u5854\u90a3\u90a3\u5229\u4f5b",
      "en_capital": "Antananarivo",
      "alpha_2": "MG",
      "alpha_3": "MDG",
      "phone_code": "261"
    },
    {
      "name": "\u9a6c\u62c9\u7ef4",
      "en_name": "Malawi",
      "native_name": "Malawi",
      "capital": "\u5229\u9686\u572d",
      "en_capital": "Lilongwe",
      "alpha_2": "MW",
      "alpha_3": "MWI",
      "phone_code": "265"
    },
    {
      "name": "\u9a6c\u6765\u897f\u4e9a",
      "en_name": "Malaysia",
      "native_name": "Malaysia",
      "capital": "\u5409\u9686\u5761",
      "en_capital": "Kuala Lumpur",
      "alpha_2": "MY",
      "alpha_3": "MYS",
      "phone_code": "60"
    },
    {
      "name": "\u9a6c\u5c14\u4ee3\u592b",
      "en_name": "Maldives",
      "native_name": "Maldives",
      "capital": "\u9a6c\u7d2f",
      "en_capital": "Mal\u00e9",
      "alpha_2": "MV",
      "alpha_3": "MDV",
      "phone_code": "960"
    },
    {
      "name": "\u9a6c\u91cc",
      "en_name": "Mali",
      "native_name": "Mali",
      "capital": "\u5df4\u9a6c\u79d1",
      "en_capital": "Bamako",
      "alpha_2": "ML",
      "alpha_3": "MLI",
      "phone_code": "223"
    },
    {
      "name": "\u9a6c\u8033\u4ed6",
      "en_name": "Malta",
      "native_name": "Malta",
      "capital": "\u74e6\u83b1\u5854",
      "en_capital": "Valletta",
      "alpha_2": "MT",
      "alpha_3": "MLT",
      "phone_code": "356"
    },
    {
      "name": "\u9a6c\u7ecd\u5c14\u7fa4\u5c9b",
      "en_name": "Marshall Islands",
      "native_name": "M\u0327aje\u013c",
      "capital": "\u9a6c\u6731\u7f57",
      "en_capital": "Majuro",
      "alpha_2": "MH",
      "alpha_3": "MHL",
      "phone_code": "692"
    },
    {
      "name": "\u9a6c\u63d0\u5c3c\u514b\u5c9b",
      "en_name": "Martinique",
      "native_name": "Martinique",
      "capital": "\u6cd5\u5170\u897f\u5821",
      "en_capital": "Fort-de-France",
      "alpha_2": "MQ",
      "alpha_3": "MTQ",
      "phone_code": "596"
    },
    {
      "name": "\u6bdb\u91cc\u5854\u5c3c\u4e9a",
      "en_name": "Mauritania",
      "native_name": "\u0645\u0648\u0631\u064a\u062a\u0627\u0646\u064a\u0627",
      "capital": "\u52aa\u74e6\u514b\u8096\u7279",
      "en_capital": "Nouakchott",
      "alpha_2": "MR",
      "alpha_3": "MRT",
      "phone_code": "222"
    },
    {
      "name": "\u6bdb\u91cc\u6c42\u65af",
      "en_name": "Mauritius",
      "native_name": "Maurice",
      "capital": "\u8def\u6613\u6e2f",
      "en_capital": "Port Louis",
      "alpha_2": "MU",
      "alpha_3": "MUS",
      "phone_code": "230"
    },
    {
      "name": "\u9a6c\u7ea6\u7279\u5c9b",
      "en_name": "Mayotte",
      "native_name": "Mayotte",
      "capital": "Mamoudzou",
      "en_capital": "Mamoudzou",
      "alpha_2": "YT",
      "alpha_3": "MYT",
      "phone_code": "262"
    },
    {
      "name": "\u58a8\u897f\u54e5",
      "en_name": "Mexico",
      "native_name": "M\u00e9xico",
      "capital": "\u58a8\u897f\u54e5\u57ce",
      "en_capital": "Mexico City",
      "alpha_2": "MX",
      "alpha_3": "MEX",
      "phone_code": "52"
    },
    {
      "name": "\u5bc6\u514b\u7f57\u5c3c\u897f\u4e9a\u8054\u90a6",
      "en_name": "Federated States of Micronesia",
      "native_name": "Micronesia",
      "capital": "Palikir",
      "en_capital": "Palikir",
      "alpha_2": "FM",
      "alpha_3": "FSM",
      "phone_code": "691"
    },
    {
      "name": "\u6469\u5c14\u591a\u74e6",
      "en_name": "Moldova",
      "native_name": "Moldova",
      "capital": "Chi\u0219in\u0103u",
      "en_capital": "Chi\u0219in\u0103u",
      "alpha_2": "MD",
      "alpha_3": "MDA",
      "phone_code": "373"
    },
    {
      "name": "\u6469\u7eb3\u54e5",
      "en_name": "Monaco",
      "native_name": "Monaco",
      "capital": "\u6469\u7eb3\u54e5",
      "en_capital": "Monaco",
      "alpha_2": "MC",
      "alpha_3": "MCO",
      "phone_code": "377"
    },
    {
      "name": "\u8499\u53e4",
      "en_name": "Mongolia",
      "native_name": "\u041c\u043e\u043d\u0433\u043e\u043b \u0443\u043b\u0441",
      "capital": "\u4e4c\u5170\u5df4\u6258",
      "en_capital": "Ulan Bator",
      "alpha_2": "MN",
      "alpha_3": "MNG",
      "phone_code": "976"
    },
    {
      "name": "\u9ed1\u5c71",
      "en_name": "Montenegro",
      "native_name": "\u0426\u0440\u043d\u0430 \u0413\u043e\u0440\u0430",
      "capital": "\u6ce2\u5fb7\u6208\u91cc\u5bdf",
      "en_capital": "Podgorica",
      "alpha_2": "ME",
      "alpha_3": "MNE",
      "phone_code": "382"
    },
    {
      "name": "\u8499\u7279\u585e\u62c9\u7279",
      "en_name": "Montserrat",
      "native_name": "Montserrat",
      "capital": "\u666e\u5229\u8305\u65af",
      "en_capital": "Plymouth",
      "alpha_2": "MS",
      "alpha_3": "MSR",
      "phone_code": "1664"
    },
    {
      "name": "\u6469\u6d1b\u54e5",
      "en_name": "Morocco",
      "native_name": "\u0627\u0644\u0645\u063a\u0631\u0628",
      "capital": "\u62c9\u5df4\u7279",
      "en_capital": "Rabat",
      "alpha_2": "MA",
      "alpha_3": "MAR",
      "phone_code": "212"
    },
    {
      "name": "\u83ab\u6851\u6bd4\u514b",
      "en_name": "Mozambique",
      "native_name": "Mo\u00e7ambique",
      "capital": "\u9a6c\u666e\u6258",
      "en_capital": "Maputo",
      "alpha_2": "MZ",
      "alpha_3": "MOZ",
      "phone_code": "258"
    },
    {
      "name": "\u7f05\u7538",
      "en_name": "Myanmar",
      "native_name": "Myanma",
      "capital": "\u5948\u6bd4\u591a",
      "en_capital": "Naypyidaw",
      "alpha_2": "MM",
      "alpha_3": "MMR",
      "phone_code": "95"
    },
    {
      "name": "\u7eb3\u7c73\u6bd4\u4e9a",
      "en_name": "Namibia",
      "native_name": "Namibia",
      "capital": "\u6e29\u5f97\u548c\u514b",
      "en_capital": "Windhoek",
      "alpha_2": "NA",
      "alpha_3": "NAM",
      "phone_code": "264"
    },
    {
      "name": "\u7459\u9c81",
      "en_name": "Nauru",
      "native_name": "Nauru",
      "capital": "Yaren",
      "en_capital": "Yaren",
      "alpha_2": "NR",
      "alpha_3": "NRU",
      "phone_code": "674"
    },
    {
      "name": "\u5c3c\u6cca\u5c14",
      "en_name": "Nepal",
      "native_name": "\u0928\u092a\u0932",
      "capital": "\u52a0\u5fb7\u6ee1\u90fd",
      "en_capital": "Kathmandu",
      "alpha_2": "NP",
      "alpha_3": "NPL",
      "phone_code": "977"
    },
    {
      "name": "\u8377\u5170",
      "en_name": "Netherlands",
      "native_name": "Nederland",
      "capital": "\u963f\u59c6\u65af\u7279\u4e39",
      "en_capital": "Amsterdam",
      "alpha_2": "NL",
      "alpha_3": "NLD",
      "phone_code": "31"
    },
    {
      "name": "\u65b0\u5580\u91cc\u591a\u5c3c\u4e9a",
      "en_name": "New Caledonia",
      "native_name": "Nouvelle-Cal\u00e9donie",
      "capital": "\u300a\u52aa\u7f8e\u963f",
      "en_capital": "Noum\u00e9a",
      "alpha_2": "NC",
      "alpha_3": "NCL",
      "phone_code": "687"
    },
    {
      "name": "\u65b0\u897f\u5170",
      "en_name": "New Zealand",
      "native_name": "New Zealand",
      "capital": "\u60e0\u7075\u987f",
      "en_capital": "Wellington",
      "alpha_2": "NZ",
      "alpha_3": "NZL",
      "phone_code": "64"
    },
    {
      "name": "\u5c3c\u52a0\u62c9\u74dc",
      "en_name": "Nicaragua",
      "native_name": "Nicaragua",
      "capital": "\u9a6c\u90a3\u74dc",
      "en_capital": "Managua",
      "alpha_2": "NI",
      "alpha_3": "NIC",
      "phone_code": "505"
    },
    {
      "name": "\u5c3c\u65e5\u5c14",
      "en_name": "Niger",
      "native_name": "Niger",
      "capital": "\u5c3c\u4e9a\u7f8e",
      "en_capital": "Niamey",
      "alpha_2": "NE",
      "alpha_3": "NER",
      "phone_code": "227"
    },
    {
      "name": "\u5c3c\u65e5\u5229\u4e9a",
      "en_name": "Nigeria",
      "native_name": "Nigeria",
      "capital": "\u963f\u5e03\u8d3e",
      "en_capital": "Abuja",
      "alpha_2": "NG",
      "alpha_3": "NGA",
      "phone_code": "234"
    },
    {
      "name": "\u7ebd\u57c3",
      "en_name": "Niue",
      "native_name": "Niu\u0113",
      "capital": "Alofi",
      "en_capital": "Alofi",
      "alpha_2": "NU",
      "alpha_3": "NIU",
      "phone_code": "683"
    },
    {
      "name": "\u8bfa\u798f\u514b\u5c9b",
      "en_name": "Norfolk Island",
      "native_name": "Norfolk Island",
      "capital": "\u91d1\u65af\u6566",
      "en_capital": "Kingston",
      "alpha_2": "NF",
      "alpha_3": "NFK",
      "phone_code": "672"
    },
    {
      "name": "\u5317\u671d\u9c9c",
      "en_name": "North Korea",
      "native_name": "\ubd81\ud55c",
      "capital": "\u5e73\u58e4",
      "en_capital": "Pyongyang",
      "alpha_2": "KP",
      "alpha_3": "PRK",
      "phone_code": "850"
    },
    {
      "name": "\u5317\u9a6c\u91cc\u4e9a\u7eb3\u7fa4\u5c9b",
      "en_name": "Northern Mariana Islands",
      "native_name": "Northern Mariana Islands",
      "capital": "\u585e\u73ed\u5c9b",
      "en_capital": "Saipan",
      "alpha_2": "MP",
      "alpha_3": "MNP",
      "phone_code": "1670"
    },
    {
      "name": "\u632a\u5a01",
      "en_name": "Norway",
      "native_name": "Norge",
      "capital": "\u5965\u65af\u9646",
      "en_capital": "Oslo",
      "alpha_2": "NO",
      "alpha_3": "NOR",
      "phone_code": "47"
    },
    {
      "name": "\u963f\u66fc",
      "en_name": "Oman",
      "native_name": "\u0639\u0645\u0627\u0646",
      "capital": "\u9a6c\u65af\u5580\u7279",
      "en_capital": "Muscat",
      "alpha_2": "OM",
      "alpha_3": "OMN",
      "phone_code": "968"
    },
    {
      "name": "\u5df4\u57fa\u65af\u5766",
      "en_name": "Pakistan",
      "native_name": "Pakistan",
      "capital": "\u4f0a\u65af\u5170\u5821",
      "en_capital": "Islamabad",
      "alpha_2": "PK",
      "alpha_3": "PAK",
      "phone_code": "92"
    },
    {
      "name": "\u5e15\u52b3",
      "en_name": "Palau",
      "native_name": "Palau",
      "capital": "Ngerulmud",
      "en_capital": "Ngerulmud",
      "alpha_2": "PW",
      "alpha_3": "PLW",
      "phone_code": "680"
    },
    {
      "name": "\u5df4\u52d2\u65af\u5766",
      "en_name": "Palestine",
      "native_name": "\u0641\u0644\u0633\u0637\u064a\u0646",
      "capital": "\u8036\u8def\u6492\u51b7",
      "en_capital": "Jerusalem",
      "alpha_2": "PS",
      "alpha_3": "PSE",
      "phone_code": "970"
    },
    {
      "name": "\u5df4\u62ff\u9a6c",
      "en_name": "Panama",
      "native_name": "Panam\u00e1",
      "capital": "\u5df4\u62ff\u9a6c\u57ce",
      "en_capital": "Panama City",
      "alpha_2": "PA",
      "alpha_3": "PAN",
      "phone_code": "507"
    },
    {
      "name": "\u5df4\u5e03\u4e9a\u65b0\u51e0\u5185\u4e9a",
      "en_name": "Papua New Guinea",
      "native_name": "Papua Niugini",
      "capital": "\u83ab\u5c14\u5179\u6bd4\u6e2f",
      "en_capital": "Port Moresby",
      "alpha_2": "PG",
      "alpha_3": "PNG",
      "phone_code": "675"
    },
    {
      "name": "\u5df4\u62c9\u572d",
      "en_name": "Paraguay",
      "native_name": "Paraguay",
      "capital": "\u4e9a\u677e\u68ee",
      "en_capital": "Asunci\u00f3n",
      "alpha_2": "PY",
      "alpha_3": "PRY",
      "phone_code": "595"
    },
    {
      "name": "\u79d8\u9c81",
      "en_name": "Peru",
      "native_name": "Per\u00fa",
      "capital": "\u5229\u9a6c",
      "en_capital": "Lima",
      "alpha_2": "PE",
      "alpha_3": "PER",
      "phone_code": "51"
    },
    {
      "name": "\u83f2\u5f8b\u5bbe",
      "en_name": "Philippines",
      "native_name": "Pilipinas",
      "capital": "\u9a6c\u5c3c\u62c9",
      "en_capital": "Manila",
      "alpha_2": "PH",
      "alpha_3": "PHL",
      "phone_code": "63"
    },
    {
      "name": "\u76ae\u7279\u51ef\u6069\u7fa4\u5c9b",
      "en_name": "Pitcairn Islands",
      "native_name": "Pitcairn Islands",
      "capital": "Adamstown",
      "en_capital": "Adamstown",
      "alpha_2": "PN",
      "alpha_3": "PCN",
      "phone_code": "64"
    },
    {
      "name": "\u6ce2\u5170",
      "en_name": "Poland",
      "native_name": "Polska",
      "capital": "\u534e\u6c99",
      "en_capital": "Warsaw",
      "alpha_2": "PL",
      "alpha_3": "POL",
      "phone_code": "48"
    },
    {
      "name": "\u8461\u8404\u7259",
      "en_name": "Portugal",
      "native_name": "Portugal",
      "capital": "\u91cc\u65af\u672c",
      "en_capital": "Lisbon",
      "alpha_2": "PT",
      "alpha_3": "PRT",
      "phone_code": "351"
    },
    {
      "name": "\u6ce2\u591a\u9ece\u5404\u7684",
      "en_name": "Puerto Rico",
      "native_name": "Puerto Rico",
      "capital": "\u5723\u80e1\u5b89",
      "en_capital": "San Juan",
      "alpha_2": "PR",
      "alpha_3": "PRI",
      "phone_code": "1787"
    },
    {
      "name": "\u5361\u5854\u5c14",
      "en_name": "Qatar",
      "native_name": "\u0642\u0637\u0631",
      "capital": "\u591a\u54c8",
      "en_capital": "Doha",
      "alpha_2": "QA",
      "alpha_3": "QAT",
      "phone_code": "974"
    },
    {
      "name": "\u79d1\u7d22\u6c83\u5171\u548c\u56fd",
      "en_name": "Republic of Kosovo",
      "native_name": "Republika e Kosov\u00ebs",
      "capital": "\u666e\u91cc\u4ec0\u8482\u7eb3",
      "en_capital": "Pristina",
      "alpha_2": "XK",
      "alpha_3": "KOS",
      "phone_code": "383"
    },
     {
      "name": "\u7559\u5c3c\u6c6a",
      "en_name": "R\u00e9union",
      "native_name": "La R\u00e9union",
      "capital": "Saint-Denis",
      "en_capital": "Saint-Denis",
      "alpha_2": "RE",
      "alpha_3": "REU",
      "phone_code": "262"
    },
    {
      "name": "\u7f57\u9a6c\u5c3c\u4e9a",
      "en_name": "Romania",
      "native_name": "Rom\u00e2nia",
      "capital": "\u5e03\u52a0\u52d2\u65af\u7279",
      "en_capital": "Bucharest",
      "alpha_2": "RO",
      "alpha_3": "ROU",
      "phone_code": "40"
    },
    {
      "name": "\u4fc4\u7f57\u65af",
      "en_name": "Russia",
      "native_name": "\u0420\u043e\u0441\u0441\u0438\u044f",
      "capital": "\u83ab\u65af\u79d1",
      "en_capital": "Moscow",
      "alpha_2": "RU",
      "alpha_3": "RUS",
      "phone_code": "7"
    },
    {
      "name": "\u5362\u65fa\u8fbe\u95ee\u9898",
      "en_name": "Rwanda",
      "native_name": "Rwanda",
      "capital": "\u57fa\u52a0\u5229",
      "en_capital": "Kigali",
      "alpha_2": "RW",
      "alpha_3": "RWA",
      "phone_code": "250"
    },
    {
      "name": "Saint Barth\u00e9lemy",
      "en_name": "Saint Barth\u00e9lemy",
      "native_name": "Saint-Barth\u00e9lemy",
      "capital": "\u534a\u679c\u6811",
      "en_capital": "Gustavia",
      "alpha_2": "BL",
      "alpha_3": "BLM",
      "phone_code": "590"
    },
    {
      "name": "\u5723\u57fa\u8328\u548c\u5c3c\u7ef4\u65af",
      "en_name": "Saint Kitts and Nevis",
      "native_name": "Saint Kitts and Nevis",
      "capital": "Basseterre",
      "en_capital": "Basseterre",
      "alpha_2": "KN",
      "alpha_3": "KNA",
      "phone_code": "1869"
    },
    {
      "name": "\u5723\u5362\u897f\u4e9a",
      "en_name": "Saint Lucia",
      "native_name": "Saint Lucia",
      "capital": "\u5361\u65af\u7279\u91cc",
      "en_capital": "Castries",
      "alpha_2": "LC",
      "alpha_3": "LCA",
      "phone_code": "1758"
    },
    {
      "name": "\u5723\u9a6c\u4e01",
      "en_name": "Saint Martin",
      "native_name": "Saint-Martin",
      "capital": "Marigot",
      "en_capital": "Marigot",
      "alpha_2": "MF",
      "alpha_3": "MAF",
      "phone_code": "590"
    },
    {
      "name": "\u5723\u76ae\u57c3\u5c14\u548c\u5bc6\u514b\u9686",
      "en_name": "Saint Pierre and Miquelon",
      "native_name": "Saint-Pierre-et-Miquelon",
      "capital": "\u5723\u76ae\u57c3\u5c14",
      "en_capital": "Saint-Pierre",
      "alpha_2": "PM",
      "alpha_3": "SPM",
      "phone_code": "508"
    },
    {
      "name": "\u5723\u6587\u68ee\u7279\u548c\u683c\u6797\u7eb3\u4e01\u65af",
      "en_name": "Saint Vincent and the Grenadines",
      "native_name": "Saint Vincent and the Grenadines",
      "capital": "Kingstown",
      "en_capital": "Kingstown",
      "alpha_2": "VC",
      "alpha_3": "VCT",
      "phone_code": "1784"
    },
    {
      "name": "\u8428\u6469\u4e9a",
      "en_name": "Samoa",
      "native_name": "Samoa",
      "capital": "\u963f\u76ae\u4e9a",
      "en_capital": "Apia",
      "alpha_2": "WS",
      "alpha_3": "WSM",
      "phone_code": "685"
    },
    {
      "name": "\u5723\u9a6c\u529b\u8bfa",
      "en_name": "San Marino",
      "native_name": "San Marino",
      "capital": "\u57ce\u5723\u9a6c\u529b\u8bfa",
      "en_capital": "City of San Marino",
      "alpha_2": "SM",
      "alpha_3": "SMR",
      "phone_code": "378"
    },
    {
      "name": "\u5723\u591a\u7f8e\u548c\u666e\u6797\u897f\u6bd4",
      "en_name": "S\u00e3o Tom\u00e9 and Pr\u00edncipe",
      "native_name": "S\u00e3o Tom\u00e9 e Pr\u00edncipe",
      "capital": "\u5723\u591a\u7f8e",
      "en_capital": "S\u00e3o Tom\u00e9",
      "alpha_2": "ST",
      "alpha_3": "STP",
      "phone_code": "239"
    },
    {
      "name": "\u6c99\u7279\u963f\u62c9\u4f2f",
      "en_name": "Saudi Arabia",
      "native_name": "\u0627\u0644\u0639\u0631\u0628\u064a\u0629 \u0627\u0644\u0633\u0639\u0648\u062f\u064a\u0629",
      "capital": "\u5229\u96c5\u5f97",
      "en_capital": "Riyadh",
      "alpha_2": "SA",
      "alpha_3": "SAU",
      "phone_code": "966"
    },
    {
      "name": "\u585e\u5185\u52a0\u5c14",
      "en_name": "Senegal",
      "native_name": "S\u00e9n\u00e9gal",
      "capital": "\u8fbe\u5580\u5c14",
      "en_capital": "Dakar",
      "alpha_2": "SN",
      "alpha_3": "SEN",
      "phone_code": "221"
    },
    {
      "name": "\u585e\u5c14\u7ef4\u4e9a",
      "en_name": "Serbia",
      "native_name": "\u0421\u0440\u0431\u0438\u0458\u0430",
      "capital": "\u8d1d\u5c14\u683c\u83b1\u5fb7",
      "en_capital": "Belgrade",
      "alpha_2": "RS",
      "alpha_3": "SRB",
      "phone_code": "381"
    },
    {
      "name": "\u585e\u820c\u5c14",
      "en_name": "Seychelles",
      "native_name": "Seychelles",
      "capital": "\u7ef4\u591a\u5229\u4e9a",
      "en_capital": "Victoria",
      "alpha_2": "SC",
      "alpha_3": "SYC",
      "phone_code": "248"
    },
    {
      "name": "\u585e\u62c9\u5229\u6602",
      "en_name": "Sierra Leone",
      "native_name": "Sierra Leone",
      "capital": "\u5f17\u91cc\u6566",
      "en_capital": "Freetown",
      "alpha_2": "SL",
      "alpha_3": "SLE",
      "phone_code": "232"
    },
    {
      "name": "\u65b0\u52a0\u5761",
      "en_name": "Singapore",
      "native_name": "Singapore",
      "capital": "\u65b0\u52a0\u5761",
      "en_capital": "Singapore",
      "alpha_2": "SG",
      "alpha_3": "SGP",
      "phone_code": "65"
    },
    {
      "name": "\u5723\u9a6c\u4e01\u5c9b",
      "en_name": "Sint Maarten",
      "native_name": "Sint Maarten",
      "capital": "Philipsburg",
      "en_capital": "Philipsburg",
      "alpha_2": "SX",
      "alpha_3": "SXM",
      "phone_code": "1721"
    },
    {
      "name": "\u65af\u6d1b\u4f10\u514b",
      "en_name": "Slovakia",
      "native_name": "Slovensko",
      "capital": "\u5e03\u62c9\u8fea\u65af\u62c9\u53d1",
      "en_capital": "Bratislava",
      "alpha_2": "SK",
      "alpha_3": "SVK",
      "phone_code": "421"
    },
    {
      "name": "\u65af\u6d1b\u6587\u5c3c\u4e9a",
      "en_name": "Slovenia",
      "native_name": "Slovenija",
      "capital": "\u5362\u5e03\u5c14\u96c5\u90a3",
      "en_capital": "Ljubljana",
      "alpha_2": "SI",
      "alpha_3": "SVN",
      "phone_code": "386"
    },
    {
      "name": "\u6240\u7f57\u95e8\u7fa4\u5c9b",
      "en_name": "Solomon Islands",
      "native_name": "Solomon Islands",
      "capital": "\u970d\u5c3c\u4e9a\u62c9",
      "en_capital": "Honiara",
      "alpha_2": "SB",
      "alpha_3": "SLB",
      "phone_code": "677"
    },
    {
      "name": "\u7d22\u9a6c\u91cc\u7684",
      "en_name": "Somalia",
      "native_name": "Soomaaliya",
      "capital": "\u6469\u52a0\u8fea\u6c99",
      "en_capital": "Mogadishu",
      "alpha_2": "SO",
      "alpha_3": "SOM",
      "phone_code": "252"
    },
    {
      "name": "\u5357\u975e",
      "en_name": "South Africa",
      "native_name": "South Africa",
      "capital": "\u6bd4\u52d2\u9640\u5229\u4e9a",
      "en_capital": "Pretoria",
      "alpha_2": "ZA",
      "alpha_3": "ZAF",
      "phone_code": "27"
    },
    {
      "name": "\u5357\u4e54\u6cbb\u4e9a",
      "en_name": "South Georgia",
      "native_name": "South Georgia",
      "capital": "\u56fd\u738b\u7231\u5fb7\u534e\u7684\u89c2\u70b9",
      "en_capital": "King Edward Point",
      "alpha_2": "GS",
      "alpha_3": "SGS",
      "phone_code": "500"
    },
    {
      "name": "\u82cf\u4e39\u5357\u90e8",
      "en_name": "South Sudan",
      "native_name": "South Sudan",
      "capital": "\u6731\u5df4",
      "en_capital": "Juba",
      "alpha_2": "SS",
      "alpha_3": "SSD",
      "phone_code": "211"
    },
    {
      "name": "\u897f\u73ed\u7259",
      "en_name": "Spain",
      "native_name": "Espa\u00f1a",
      "capital": "\u9a6c\u5fb7\u91cc",
      "en_capital": "Madrid",
      "alpha_2": "ES",
      "alpha_3": "ESP",
      "phone_code": "34"
    },
    {
      "name": "\u65af\u91cc\u5170\u5361",
      "en_name": "Sri Lanka",
      "native_name": "\u015br\u012b la\u1e43k\u0101va",
      "capital": "\u79d1\u4f26\u5761",
      "en_capital": "Colombo",
      "alpha_2": "LK",
      "alpha_3": "LKA",
      "phone_code": "94"
    },
    {
      "name": "\u82cf\u4e39",
      "en_name": "Sudan",
      "native_name": "\u0627\u0644\u0633\u0648\u062f\u0627\u0646",
      "capital": "\u5580\u571f\u7a46",
      "en_capital": "Khartoum",
      "alpha_2": "SD",
      "alpha_3": "SDN",
      "phone_code": "249"
    },
    {
      "name": "\u82cf\u91cc\u5357",
      "en_name": "Suriname",
      "native_name": "Suriname",
      "capital": "\u5e15\u62c9\u9a6c\u91cc\u535a",
      "en_capital": "Paramaribo",
      "alpha_2": "SR",
      "alpha_3": "SUR",
      "phone_code": "597"
    },
    {
      "name": "\u65af\u74e6\u5c14\u5df4\u7279\u7fa4\u5c9b\u548c\u626c\u9a6c\u5ef6\u5c9b",
      "en_name": "Svalbard and Jan Mayen",
      "native_name": "Svalbard og Jan Mayen",
      "capital": "Longyearbyen",
      "en_capital": "Longyearbyen",
      "alpha_2": "SJ",
      "alpha_3": "SJM",
      "phone_code": "4779"
    },
    {
      "name": "\u65af\u5a01\u58eb\u5170",
      "en_name": "Swaziland",
      "native_name": "Swaziland",
      "capital": "Lobamba",
      "en_capital": "Lobamba",
      "alpha_2": "SZ",
      "alpha_3": "SWZ",
      "phone_code": "268"
    },
    {
      "name": "\u745e\u5178",
      "en_name": "Sweden",
      "native_name": "Sverige",
      "capital": "\u65af\u5fb7\u54e5\u5c14\u6469",
      "en_capital": "Stockholm",
      "alpha_2": "SE",
      "alpha_3": "SWE",
      "phone_code": "46"
    },
    {
      "name": "\u745e\u58eb",
      "en_name": "Switzerland",
      "native_name": "Schweiz",
      "capital": "\u4f2f\u5c14\u5c3c",
      "en_capital": "Bern",
      "alpha_2": "CH",
      "alpha_3": "CHE",
      "phone_code": "41"
    },
    {
      "name": "\u53d9\u5229\u4e9a",
      "en_name": "Syria",
      "native_name": "\u0633\u0648\u0631\u064a\u0627",
      "capital": "\u5927\u9a6c\u58eb\u9769",
      "en_capital": "Damascus",
      "alpha_2": "SY",
      "alpha_3": "SYR",
      "phone_code": "963"
    },
    {
      "name": "\u4e2d\u56fd\u53f0\u6e7e",
      "en_name": "Taiwan(China)",
      "native_name": "\u81fa\u7063",
      "capital": "\u53f0\u5317",
      "en_capital": "Taipei",
      "alpha_2": "TW",
      "alpha_3": "TWN",
      "phone_code": "886"
    },
    {
      "name": "\u5854\u5409\u514b\u65af\u5766",
      "en_name": "Tajikistan",
      "native_name": "\u0422\u043e\u04b7\u0438\u043a\u0438\u0441\u0442\u043e\u043d",
      "capital": "\u675c\u5c1a\u522b",
      "en_capital": "Dushanbe",
      "alpha_2": "TJ",
      "alpha_3": "TJK",
      "phone_code": "992"
    },
    {
      "name": "\u5766\u6851\u5c3c\u4e9a",
      "en_name": "Tanzania",
      "native_name": "Tanzania",
      "capital": "\u591a\u591a\u9a6c",
      "en_capital": "Dodoma",
      "alpha_2": "TZ",
      "alpha_3": "TZA",
      "phone_code": "255"
    },
    {
      "name": "\u6cf0\u56fd",
      "en_name": "Thailand",
      "native_name": "\u0e1b\u0e23\u0e30\u0e40\u0e17\u0e28\u0e44\u0e17\u0e22",
      "capital": "\u66fc\u8c37",
      "en_capital": "Bangkok",
      "alpha_2": "TH",
      "alpha_3": "THA",
      "phone_code": "66"
    },
    {
      "name": "\u4e1c\u5e1d\u6c76\u7684",
      "en_name": "East Timor",
      "native_name": "Timor-Leste",
      "capital": "\u5e1d\u529b",
      "en_capital": "Dili",
      "alpha_2": "TL",
      "alpha_3": "TLS",
      "phone_code": "670"
    },
    {
      "name": "\u591a\u54e5",
      "en_name": "Togo",
      "native_name": "Togo",
      "capital": "\u6d1b\u7f8e",
      "en_capital": "Lom\u00e9",
      "alpha_2": "TG",
      "alpha_3": "TGO",
      "phone_code": "228"
    },
    {
      "name": "\u6258\u514b\u52b3",
      "en_name": "Tokelau",
      "native_name": "Tokelau",
      "capital": "\u6cd5\u8003\u798f",
      "en_capital": "Fakaofo",
      "alpha_2": "TK",
      "alpha_3": "TKL",
      "phone_code": "690"
    },
    {
      "name": "\u6c64\u52a0",
      "en_name": "Tonga",
      "native_name": "Tonga",
      "capital": "\u52aa\u5e93\u963f\u6d1b\u6cd5",
      "en_capital": "Nuku'alofa",
      "alpha_2": "TO",
      "alpha_3": "TON",
      "phone_code": "676"
    },
    {
      "name": "\u7279\u7acb\u5c3c\u8fbe\u548c\u591a\u5df4\u54e5",
      "en_name": "Trinidad and Tobago",
      "native_name": "Trinidad and Tobago",
      "capital": "\u897f\u73ed\u7259\u6e2f",
      "en_capital": "Port of Spain",
      "alpha_2": "TT",
      "alpha_3": "TTO",
      "phone_code": "1868"
    },
    {
      "name": "\u7a81\u5c3c\u65af",
      "en_name": "Tunisia",
      "native_name": "\u062a\u0648\u0646\u0633",
      "capital": "\u7a81\u5c3c\u65af",
      "en_capital": "Tunis",
      "alpha_2": "TN",
      "alpha_3": "TUN",
      "phone_code": "216"
    },
    {
      "name": "\u571f\u8033\u5176",
      "en_name": "Turkey",
      "native_name": "T\u00fcrkiye",
      "capital": "\u5b89\u5361\u62c9",
      "en_capital": "Ankara",
      "alpha_2": "TR",
      "alpha_3": "TUR",
      "phone_code": "90"
    },
    {
      "name": "\u571f\u5e93\u66fc\u65af\u5766",
      "en_name": "Turkmenistan",
      "native_name": "T\u00fcrkmenistan",
      "capital": "\u963f\u4ec0\u54c8\u5df4\u5fb7",
      "en_capital": "Ashgabat",
      "alpha_2": "TM",
      "alpha_3": "TKM",
      "phone_code": "993"
    },
    {
      "name": "\u7279\u514b\u65af\u548c\u51ef\u79d1\u65af\u7fa4\u5c9b",
      "en_name": "Turks and Caicos Islands",
      "native_name": "Turks and Caicos Islands",
      "capital": "\u79d1\u4f2f\u6069\u57ce",
      "en_capital": "Cockburn Town",
      "alpha_2": "TC",
      "alpha_3": "TCA",
      "phone_code": "1649"
    },
    {
      "name": "\u56fe\u74e6\u5362",
      "en_name": "Tuvalu",
      "native_name": "Tuvalu",
      "capital": "\u5bcc\u7eb3\u5bcc\u63d0\u3002",
      "en_capital": "Funafuti",
      "alpha_2": "TV",
      "alpha_3": "TUV",
      "phone_code": "688"
    },
    {
      "name": "\u4e4c\u5e72\u8fbe",
      "en_name": "Uganda",
      "native_name": "Uganda",
      "capital": "\u574e\u5e15\u62c9",
      "en_capital": "Kampala",
      "alpha_2": "UG",
      "alpha_3": "UGA",
      "phone_code": "256"
    },
    {
      "name": "\u4e4c\u514b\u5170",
      "en_name": "Ukraine",
      "native_name": "\u0423\u043a\u0440\u0430\u0457\u043d\u0430",
      "capital": "\u57fa\u8f85",
      "en_capital": "Kiev",
      "alpha_2": "UA",
      "alpha_3": "UKR",
      "phone_code": "380"
    },
    {
      "name": "\u963f\u62c9\u4f2f\u8054\u5408\u914b\u957f\u56fd",
      "en_name": "United Arab Emirates",
      "native_name": "\u062f\u0648\u0644\u0629 \u0627\u0644\u0625\u0645\u0627\u0631\u0627\u062a \u0627\u0644\u0639\u0631\u0628\u064a\u0629 \u0627\u0644\u0645\u062a\u062d\u062f\u0629",
      "capital": "\u963f\u5e03\u624e\u6bd4",
      "en_capital": "Abu Dhabi",
      "alpha_2": "AE",
      "alpha_3": "ARE",
      "phone_code": "971"
    },
    {
      "name": "\u8054\u5408\u738b\u56fd",
      "en_name": "United Kingdom",
      "native_name": "United Kingdom",
      "capital": "\u4f26\u6566",
      "en_capital": "London",
      "alpha_2": "GB",
      "alpha_3": "GBR",
      "phone_code": "44"
    },
    {
      "name": "\u4e4c\u62c9\u572d",
      "en_name": "Uruguay",
      "native_name": "Uruguay",
      "capital": "\u8499\u5f97\u7ef4\u7684\u4e9a",
      "en_capital": "Montevideo",
      "alpha_2": "UY",
      "alpha_3": "URY",
      "phone_code": "598"
    },
    {
      "name": "\u4e4c\u5179\u522b\u514b\u65af\u5766",
      "en_name": "Uzbekistan",
      "native_name": "O\u2018zbekiston",
      "capital": "\u5854\u4ec0\u5e72",
      "en_capital": "Tashkent",
      "alpha_2": "UZ",
      "alpha_3": "UZB",
      "phone_code": "998"
    },
    {
      "name": "\u74e6\u52aa\u963f\u56fe",
      "en_name": "Vanuatu",
      "native_name": "Vanuatu",
      "capital": "\u7ef4\u62c9\u6e2f",
      "en_capital": "Port Vila",
      "alpha_2": "VU",
      "alpha_3": "VUT",
      "phone_code": "678"
    },
    {
      "name": "\u59d4\u5185\u745e\u62c9",
      "en_name": "Venezuela",
      "native_name": "Venezuela",
      "capital": "\u52a0\u62c9\u52a0\u65af",
      "en_capital": "Caracas",
      "alpha_2": "VE",
      "alpha_3": "VEN",
      "phone_code": "58"
    },
    {
      "name": "\u8d8a\u5357",
      "en_name": "Vietnam",
      "native_name": "Vi\u1ec7t Nam",
      "capital": "\u6cb3\u5185",
      "en_capital": "Hanoi",
      "alpha_2": "VN",
      "alpha_3": "VNM",
      "phone_code": "84"
    },
    {
      "name": "\u74e6\u5229\u65af\u7fa4\u5c9b\u548c\u5bcc\u56fe\u7eb3\u7fa4\u5c9b",
      "en_name": "Wallis and Futuna",
      "native_name": "Wallis et Futuna",
      "capital": "\u9a6c\u5854-Utu",
      "en_capital": "Mata-Utu",
      "alpha_2": "WF",
      "alpha_3": "WLF",
      "phone_code": "681"
    },
    {
      "name": "\u897f\u6492\u54c8\u62c9\u7684",
      "en_name": "Western Sahara",
      "native_name": "\u0627\u0644\u0635\u062d\u0631\u0627\u0621 \u0627\u0644\u063a\u0631\u0628\u064a\u0629",
      "capital": "\u963f\u5c24\u6069",
      "en_capital": "El Aai\u00fan",
      "alpha_2": "EH",
      "alpha_3": "ESH",
      "phone_code": "212"
    },
    {
      "name": "\u4e5f\u95e8",
      "en_name": "Yemen",
      "native_name": "\u0627\u0644\u064a\u064e\u0645\u064e\u0646",
      "capital": "\u8428\u90a3",
      "en_capital": "Sana'a",
      "alpha_2": "YE",
      "alpha_3": "YEM",
      "phone_code": "967"
    },
    {
      "name": "\u8d5e\u6bd4\u4e9a",
      "en_name": "Zambia",
      "native_name": "Zambia",
      "capital": "\u5362\u8428\u5361",
      "en_capital": "Lusaka",
      "alpha_2": "ZM",
      "alpha_3": "ZMB",
      "phone_code": "260"
    },
    {
      "name": "\u6d25\u5df4\u5e03\u97e6",
      "en_name": "Zimbabwe",
      "native_name": "Zimbabwe",
      "capital": "\u54c8\u62c9\u96f7",
      "en_capital": "Harare",
      "alpha_2": "ZW",
      "alpha_3": "ZWE",
      "phone_code": "263"
    }
  ]
}